ONEWEB-0685             
1 54679U 22166AP  25364.81897734  .00000048  00000+0  83580-4 0  9994
2 54679  87.9226 277.5733 0001857  84.6048 275.5298 13.21835767149175
ONEWEB-0712             
1 54680U 22166AQ  25364.72674796  .00000136  00000+0  32195-3 0  9990
2 54680  87.9046 262.3142 0002006  62.5682 297.5653 13.16593743149896
ONEWEB-0714             
1 54681U 22166AR  25364.82522180  .00000047  00000+0  82462-4 0  9995
2 54681  87.9226 277.5661 0001898  74.5046 285.6297 13.21826375149298
ONEWEB-0532             
1 55140U 23004A   25364.60693307  .00000019  00000+0  15494-4 0  9994
2 55140  87.9103  39.3754 0001881 109.5366 250.5969 13.17648950145385
ONEWEB-0533             
1 55141U 23004B   25364.59208778  .00000430  00000+0  11593-2 0  9998
2 55141  87.8928  24.1493 0001920  91.8982 268.2366 13.12443180145945
ONEWEB-0541             
1 55142U 23004C   25364.64272749 -.00000453  00000+0 -13131-2 0  9991
2 55142  87.8846  54.6088 0001669 102.7441 257.3873 13.11416726143850
ONEWEB-0543             
1 55143U 23004D   25364.56622317  .00000120  00000+0  27200-3 0  9995
2 55143  87.9154   8.9756 0001836  80.8694 279.2646 13.18684043147479
ONEWEB-0544             
1 55144U 23004E   25364.93903605  .00000141  00000+0  32424-3 0  9996
2 55144  87.9160   8.8930 0001523  85.1980 274.9326 13.18686444147529
